start=new Date('2021-10-23T00:00:00.000Z').valueOf();
sats=[{"RA_OF_ASC_NODE":"109.5544","EPHEMERIS_TYPE":"0","OBJECT_ID":"2021-041E","FILE":"3179071","BSTAR":"0.00006404000000","MEAN_MOTION":"15.06379920","EPOCH":"2021-10-22T17:56:43.661184","MEAN_MOTION_DOT":"0.00000672","OBJECT_NAME":"STARLINK-2155","APOAPSIS":"548.211","SITE":"AFETR","CENTER_NAME":"EARTH","DECAY_DATE":null,"CLASSIFICATION_TYPE":"U","PERIAPSIS":"546.339","MEAN_MOTION_DDOT":"0.0000000000000","SEMIMAJOR_AXIS":"6925.410","LAUNCH_DATE":"2021-05-15","OBJECT_TYPE":"PAYLOAD","PERIOD":"95.593","INCLINATION":"53.0562","REV_AT_EPOCH":"2420","TLE_LINE1":"1 48557U 21041E   21295.74772756  .00000672  00000-0  64040-4 0  9994","TLE_LINE2":"2 48557  53.0562 109.5544 0001351  80.9434 279.1707 15.06379920 24201","ARG_OF_PERICENTER":"80.9434","ECCENTRICITY":"0.00013510","REF_FRAME":"TEME","MEAN_ANOMALY":"279.1707","RCS_SIZE":"LARGE","GP_ID":"187935072","NORAD_CAT_ID":"48557","COUNTRY_CODE":"US","TIME_SYSTEM":"UTC","ELEMENT_SET_NO":"999","MEAN_ELEMENT_THEORY":"SGP4"},{"TLE_LINE1":"1 48558U 21041F   21295.74402262  .00000668  00000-0  63744-4 0  9992","TLE_LINE2":"2 48558  53.0558 109.5671 0001710  84.1925 275.9259 15.06394859 23346","ARG_OF_PERICENTER":"84.1925","OBJECT_TYPE":"PAYLOAD","LAUNCH_DATE":"2021-05-15","PERIOD":"95.592","INCLINATION":"53.0558","REV_AT_EPOCH":"2334","TIME_SYSTEM":"UTC","MEAN_ELEMENT_THEORY":"SGP4","ELEMENT_SET_NO":"999","ECCENTRICITY":"0.00017100","REF_FRAME":"TEME","MEAN_ANOMALY":"275.9259","GP_ID":"187935296","RCS_SIZE":"LARGE","NORAD_CAT_ID":"48558","COUNTRY_CODE":"US","EPOCH":"2021-10-22T17:51:23.554368","MEAN_MOTION_DOT":"0.00000668","APOAPSIS":"548.414","OBJECT_NAME":"STARLINK-2166","RA_OF_ASC_NODE":"109.5671","EPHEMERIS_TYPE":"0","OBJECT_ID":"2021-041F","FILE":"3179071","MEAN_MOTION":"15.06394859","BSTAR":"0.00006374400000","SEMIMAJOR_AXIS":"6925.364","MEAN_MOTION_DDOT":"0.0000000000000","CENTER_NAME":"EARTH","SITE":"AFETR","CLASSIFICATION_TYPE":"U","DECAY_DATE":null,"PERIAPSIS":"546.045"},{"REV_AT_EPOCH":"2419","OBJECT_TYPE":"PAYLOAD","LAUNCH_DATE":"2021-05-15","INCLINATION":"53.0517","PERIOD":"95.592","ARG_OF_PERICENTER":"83.0303","TLE_LINE1":"1 48559U 21041G   21295.71360792  .00000459  00000-0  49757-4 0  9997","TLE_LINE2":"2 48559  53.0517 109.7088 0001889  83.0303 277.0900 15.06397829 24191","MEAN_ANOMALY":"277.0900","REF_FRAME":"TEME","COUNTRY_CODE":"US","RCS_SIZE":"LARGE","GP_ID":"187935519","NORAD_CAT_ID":"48559","ECCENTRICITY":"0.00018890","TIME_SYSTEM":"UTC","ELEMENT_SET_NO":"999","MEAN_ELEMENT_THEORY":"SGP4","EPHEMERIS_TYPE":"0","FILE":"3179071","BSTAR":"0.00004975700000","MEAN_MOTION":"15.06397829","OBJECT_ID":"2021-041G","RA_OF_ASC_NODE":"109.7088","EPOCH":"2021-10-22T17:07:35.724288","MEAN_MOTION_DOT":"0.00000459","APOAPSIS":"548.528","OBJECT_NAME":"STARLINK-2167","PERIAPSIS":"545.912","CLASSIFICATION_TYPE":"U","DECAY_DATE":null,"SITE":"AFETR","CENTER_NAME":"EARTH","SEMIMAJOR_AXIS":"6925.355","MEAN_MOTION_DDOT":"0.0000000000000"},{"DECAY_DATE":null,"CLASSIFICATION_TYPE":"U","PERIAPSIS":"545.947","SITE":"AFETR","CENTER_NAME":"EARTH","SEMIMAJOR_AXIS":"6925.312","MEAN_MOTION_DDOT":"0.0000000000000","EPHEMERIS_TYPE":"0","OBJECT_ID":"2021-041H","FILE":"3179071","BSTAR":"0.00013163000000","MEAN_MOTION":"15.06411834","RA_OF_ASC_NODE":"109.7043","EPOCH":"2021-10-22T17:08:55.793760","MEAN_MOTION_DOT":"0.00001680","APOAPSIS":"548.408","OBJECT_NAME":"STARLINK-2173","REF_FRAME":"TEME","MEAN_ANOMALY":"268.5286","NORAD_CAT_ID":"48560","GP_ID":"187934851","RCS_SIZE":"LARGE","COUNTRY_CODE":"US","ECCENTRICITY":"0.00017770","MEAN_ELEMENT_THEORY":"SGP4","TIME_SYSTEM":"UTC","ELEMENT_SET_NO":"999","REV_AT_EPOCH":"2510","OBJECT_TYPE":"PAYLOAD","LAUNCH_DATE":"2021-05-15","PERIOD":"95.591","INCLINATION":"53.0504","ARG_OF_PERICENTER":"91.5906","TLE_LINE1":"1 48560U 21041H   21295.71453465  .00001680  00000-0  13163-3 0  9997","TLE_LINE2":"2 48560  53.0504 109.7043 0001777  91.5906 268.5286 15.06411834 25106"},{"TLE_LINE1":"1 48561U 21041J   21296.00002315 -.01075167  00000-0 -32742-1 0  9991","TLE_LINE2":"2 48561  53.0568  79.6947 0001516  61.4674 139.0298 15.36195025  3626","ARG_OF_PERICENTER":"61.4674","OBJECT_TYPE":"PAYLOAD","LAUNCH_DATE":"2021-05-15","INCLINATION":"53.0568","PERIOD":"93.738","REV_AT_EPOCH":"362","ELEMENT_SET_NO":"999","TIME_SYSTEM":"UTC","MEAN_ELEMENT_THEORY":"SGP4","ECCENTRICITY":"0.00015160","MEAN_ANOMALY":"139.0298","REF_FRAME":"TEME","COUNTRY_CODE":"US","GP_ID":"187935407","NORAD_CAT_ID":"48561","RCS_SIZE":"LARGE","MEAN_MOTION_DOT":"-0.01075167","EPOCH":"2021-10-23T00:00:02.000160","APOAPSIS":"458.412","OBJECT_NAME":"STARLINK-2186","RA_OF_ASC_NODE":"79.6947","EPHEMERIS_TYPE":"0","MEAN_MOTION":"15.36195025","FILE":"3179071","BSTAR":"-0.03274200000000","OBJECT_ID":"2021-041J","MEAN_MOTION_DDOT":"0.0000000000000","SEMIMAJOR_AXIS":"6835.510","CENTER_NAME":"EARTH","SITE":"AFETR","PERIAPSIS":"456.339","DECAY_DATE":null,"CLASSIFICATION_TYPE":"U"},{"MEAN_ELEMENT_THEORY":"SGP4","TIME_SYSTEM":"UTC","ELEMENT_SET_NO":"999","ECCENTRICITY":"0.00014950","MEAN_ANOMALY":"293.8926","REF_FRAME":"TEME","COUNTRY_CODE":"US","RCS_SIZE":"LARGE","GP_ID":"187934962","NORAD_CAT_ID":"48562","TLE_LINE1":"1 48562U 21041K   21295.72192259  .00000522  00000-0  53956-4 0  9990","TLE_LINE2":"2 48562  53.0591 109.6632 0001495  66.2220 293.8926 15.06380872 24201","ARG_OF_PERICENTER":"66.2220","OBJECT_TYPE":"PAYLOAD","LAUNCH_DATE":"2021-05-15","INCLINATION":"53.0591","PERIOD":"95.593","REV_AT_EPOCH":"2420","SEMIMAJOR_AXIS":"6925.407","MEAN_MOTION_DDOT":"0.0000000000000","CENTER_NAME":"EARTH","SITE":"AFETR","PERIAPSIS":"546.237","CLASSIFICATION_TYPE":"U","DECAY_DATE":null,"EPOCH":"2021-10-22T17:19:34.111776","MEAN_MOTION_DOT":"0.00000522","OBJECT_NAME":"STARLINK-2187","APOAPSIS":"548.308","RA_OF_ASC_NODE":"109.6632","EPHEMERIS_TYPE":"0","MEAN_MOTION":"15.06380872","FILE":"3179071","BSTAR":"0.00005395600000","OBJECT_ID":"2021-041K"},{"SEMIMAJOR_AXIS":"6925.378","MEAN_MOTION_DDOT":"0.0000000000000","PERIAPSIS":"545.825","CLASSIFICATION_TYPE":"U","DECAY_DATE":null,"CENTER_NAME":"EARTH","SITE":"AFETR","MEAN_MOTION_DOT":"0.00000651","EPOCH":"2021-10-22T17:46:06.198528","APOAPSIS":"548.661","OBJECT_NAME":"STARLINK-2188","EPHEMERIS_TYPE":"0","FILE":"3179071","MEAN_MOTION":"15.06390371","BSTAR":"0.00006265000000","OBJECT_ID":"2021-041L","RA_OF_ASC_NODE":"109.5871","MEAN_ELEMENT_THEORY":"SGP4","TIME_SYSTEM":"UTC","ELEMENT_SET_NO":"999","MEAN_ANOMALY":"281.3058","REF_FRAME":"TEME","COUNTRY_CODE":"US","GP_ID":"187935626","RCS_SIZE":"LARGE","NORAD_CAT_ID":"48563","ECCENTRICITY":"0.00020480","ARG_OF_PERICENTER":"78.8161","TLE_LINE1":"1 48563U 21041L   21295.74034952  .00000651  00000-0  62650-4 0  9992","TLE_LINE2":"2 48563  53.0561 109.5871 0002048  78.8161 281.3058 15.06390371 24204","REV_AT_EPOCH":"2420","OBJECT_TYPE":"PAYLOAD","LAUNCH_DATE":"2021-05-15","INCLINATION":"53.0561","PERIOD":"95.593"},{"REV_AT_EPOCH":"2420","LAUNCH_DATE":"2021-05-15","OBJECT_TYPE":"PAYLOAD","PERIOD":"95.593","INCLINATION":"53.0557","ARG_OF_PERICENTER":"85.2320","TLE_LINE1":"1 48564U 21041M   21295.73297641 -.00001301  00000-0 -68478-4 0  9997","TLE_LINE2":"2 48564  53.0557 109.6142 0001530  85.2320 274.8843 15.06387061 24207","REF_FRAME":"TEME","MEAN_ANOMALY":"274.8843","GP_ID":"187935186","RCS_SIZE":"LARGE","NORAD_CAT_ID":"48564","COUNTRY_CODE":"US","ECCENTRICITY":"0.00015300","TIME_SYSTEM":"UTC","MEAN_ELEMENT_THEORY":"SGP4","ELEMENT_SET_NO":"999","EPHEMERIS_TYPE":"0","OBJECT_ID":"2021-041M","FILE":"3179071","MEAN_MOTION":"15.06387061","BSTAR":"-0.00006847800000","RA_OF_ASC_NODE":"109.6142","EPOCH":"2021-10-22T17:35:29.161824","MEAN_MOTION_DOT":"-0.00001301","APOAPSIS":"548.313","OBJECT_NAME":"STARLINK-2190","DECAY_DATE":null,"CLASSIFICATION_TYPE":"U","PERIAPSIS":"546.194","SITE":"AFETR","CENTER_NAME":"EARTH","MEAN_MOTION_DDOT":"0.0000000000000","SEMIMAJOR_AXIS":"6925.388"},{"TLE_LINE2":"2 48565  53.0572 109.6325 0001697  87.7773 272.3411 15.06401649 24204","TLE_LINE1":"1 48565U 21041N   21295.72927501  .00001011  00000-0  86780-4 0  9994","ARG_OF_PERICENTER":"87.7773","INCLINATION":"53.0572","PERIOD":"95.592","OBJECT_TYPE":"PAYLOAD","LAUNCH_DATE":"2021-05-15","REV_AT_EPOCH":"2420","TIME_SYSTEM":"UTC","ELEMENT_SET_NO":"999","MEAN_ELEMENT_THEORY":"SGP4","ECCENTRICITY":"0.00016970","COUNTRY_CODE":"US","RCS_SIZE":"LARGE","GP_ID":"187935073","NORAD_CAT_ID":"48565","MEAN_ANOMALY":"272.3411","REF_FRAME":"TEME","OBJECT_NAME":"STARLINK-2191","APOAPSIS":"548.384","MEAN_MOTION_DOT":"0.00001011","EPOCH":"2021-10-22T17:30:09.360864","RA_OF_ASC_NODE":"109.6325","MEAN_MOTION":"15.06401649","FILE":"3179071","BSTAR":"0.00008678000000","OBJECT_ID":"2021-041N","EPHEMERIS_TYPE":"0","MEAN_MOTION_DDOT":"0.0000000000000","SEMIMAJOR_AXIS":"6925.344","CENTER_NAME":"EARTH","SITE":"AFETR","PERIAPSIS":"546.033","DECAY_DATE":null,"CLASSIFICATION_TYPE":"U"},{"ECCENTRICITY":"0.00016690","MEAN_ANOMALY":"275.2039","REF_FRAME":"TEME","COUNTRY_CODE":"US","GP_ID":"187935297","RCS_SIZE":"LARGE","NORAD_CAT_ID":"48566","TIME_SYSTEM":"UTC","ELEMENT_SET_NO":"999","MEAN_ELEMENT_THEORY":"SGP4","OBJECT_TYPE":"PAYLOAD","LAUNCH_DATE":"2021-05-15","INCLINATION":"53.0549","PERIOD":"95.593","REV_AT_EPOCH":"2406","TLE_LINE1":"1 48566U 21041P   21295.75322530  .00000510  00000-0  53174-4 0  9993","TLE_LINE2":"2 48566  53.0549 119.5197 0001669  84.9140 275.2039 15.06389687 24061","ARG_OF_PERICENTER":"84.9140","SITE":"AFETR","CENTER_NAME":"EARTH","PERIAPSIS":"546.089","CLASSIFICATION_TYPE":"U","DECAY_DATE":null,"MEAN_MOTION_DDOT":"0.0000000000000","SEMIMAJOR_AXIS":"6925.380","RA_OF_ASC_NODE":"119.5197","EPHEMERIS_TYPE":"0","FILE":"3179071","BSTAR":"0.00005317400000","MEAN_MOTION":"15.06389687","OBJECT_ID":"2021-041P","EPOCH":"2021-10-22T18:04:38.665920","MEAN_MOTION_DOT":"0.00000510","APOAPSIS":"548.401","OBJECT_NAME":"STARLINK-2214"}];
